NORAD_CAT_ID,OBJECT_NAME,OBJECT_TYPE,EPOCH,MEAN_MOTION,ECCENTRICITY,INCLINATION,RA_OF_ASC_NODE,ARG_OF_PERICENTER,MEAN_ANOMALY,BSTAR,MEAN_MOTION_DOT,MEAN_MOTION_DDOT,TLE_LINE0,TLE_LINE1,TLE_LINE2,SEMIMAJOR_AXIS,PERIOD,APOGEE,PERIGEE,DECAYED
52680.0,STARLINK-3774,PAYLOAD,2023-11-03 13:12:22,15.08847524,0.0001284,53.2191,31.9748,82.8825,277.2313,3.8441e-06,-2.27e-06,0.0,0 STARLINK-3774,1 52680U 22053AA  23307.55025512 -.00000227  00000-0  38441-5 0  9990,2 52680  53.2191  31.9748 0001284  82.8825 277.2313 15.08847524 81754,6917.857,95.437,540.611,538.834,0.0
52680.0,STARLINK-3774,PAYLOAD,2023-11-04 05:06:14,15.08831538,0.0001574,53.2194,29.0033,66.7436,293.3722,3.258e-05,2.3e-06,0.0,0 STARLINK-3774,1 52680U 22053AA  23308.21266731  .00000230  00000-0  32580-4 0  9994,2 52680  53.2194  29.0033 0001574  66.7436 293.3722 15.08831538 81440,6917.906,95.438,540.86,538.682,0.0
52680.0,STARLINK-3774,PAYLOAD,2023-11-04 09:52:23,15.08836399,0.0001447,53.2198,28.1127,98.5781,261.5375,5.8553e-05,6.44e-06,0.0,0 STARLINK-3774,1 52680U 22053AA  23308.41138189  .00000644  00000-0  58553-4 0  9998,2 52680  53.2198  28.1127 0001447  98.5781 261.5375 15.08836399 81477,6917.891,95.438,540.757,538.755,0.0
52680.0,STARLINK-3774,PAYLOAD,2023-11-04 13:03:09,15.08843441,0.0001721,53.2202,27.5192,59.8963,300.2199,4.5041e-05,4.29e-06,0.0,0 STARLINK-3774,1 52680U 22053AA  23308.54386067  .00000429  00000-0  45041-4 0  9991,2 52680  53.2202  27.5192 0001721  59.8963 300.2199 15.08843441 81904,6917.87,95.437,540.925,538.544,0.0
52680.0,STARLINK-3774,PAYLOAD,2023-11-04 22:35:27,15.08847122,0.0001471,53.2197,25.7344,95.4639,264.6521,1.4633e-05,-5.5e-07,0.0,0 STARLINK-3774,1 52680U 22053AA  23308.94129622 -.00000055  00000-0  14633-4 0  9996,2 52680  53.2197  25.7344 0001471  95.4639 264.6521 15.08847122 81962,6917.859,95.437,540.741,538.706,0.0
52680.0,STARLINK-3774,PAYLOAD,2023-11-05 11:18:32,15.08844338,0.0001283,53.2183,23.3561,87.1577,272.9562,0.00016594,2.354e-05,0.0,0 STARLINK-3774,1 52680U 22053AA  23309.47121420  .00002354  00000-0  16594-3 0  9993,2 52680  53.2183  23.3561 0001283  87.1577 272.9562 15.08844338 81639,6917.867,95.437,540.62,538.845,0.0
52680.0,STARLINK-3774,PAYLOAD,2023-11-05 12:53:55,15.08858897,0.0001564,53.2201,23.0564,78.7594,281.3574,0.00022705,3.329e-05,0.0,0 STARLINK-3774,1 52680U 22053AA  23309.53744348  .00003329  00000-0  22705-3 0  9994,2 52680  53.2201  23.0564 0001564  78.7594 281.3574 15.08858897 82056,6917.823,95.436,540.77,538.606,0.0
52680.0,STARLINK-3774,PAYLOAD,2023-11-05 22:26:14,15.08850948,0.0001782,53.2202,21.2744,70.3086,289.8098,0.00018762,2.7e-05,0.0,0 STARLINK-3774,1 52680U 22053AA  23309.93488930  .00002700  00000-0  18762-3 0  9990,2 52680  53.2202  21.2744 0001782  70.3086 289.8098 15.08850948 82113,6917.847,95.437,540.945,538.479,0.0
52680.0,STARLINK-3774,PAYLOAD,2023-11-06 11:09:23,15.08805949,0.0001649,53.2195,18.8943,74.628,285.4894,-0.00027683,-4.687e-05,0.0,0 STARLINK-3774,1 52680U 22053AA  23310.46485034 -.00004687  00000-0 -27683-3 0  9992,2 52680  53.2195  18.8943 0001649  74.6280 285.4894 15.08805949 81781,6917.984,95.44,540.99,538.709,0.0
52680.0,STARLINK-3774,PAYLOAD,2023-11-06 22:17:04,15.08811539,0.0001463,53.2206,16.8107,107.6717,252.4435,-0.00018725,-3.264e-05,0.0,0 STARLINK-3774,1 52680U 22053AA  23310.92852940 -.00003264  00000-0 -18725-3 0  9994,2 52680  53.2206  16.8107 0001463 107.6717 252.4435 15.08811539 82261,6917.967,95.439,540.844,538.82,0.0
52680.0,STARLINK-3774,PAYLOAD,2023-11-07 04:38:37,15.08807262,9.96e-05,53.2201,15.6193,112.4955,247.6143,-0.00014163,-2.539e-05,0.0,0 STARLINK-3774,1 52680U 22053AA  23311.19348478 -.00002539  00000-0 -14163-3 0  9996,2 52680  53.2201  15.6193 0000996 112.4955 247.6143 15.08807262 81894,6917.98,95.44,540.534,539.156,0.0
52680.0,STARLINK-3774,PAYLOAD,2023-11-07 11:00:09,15.08814176,0.0001458,53.2196,14.4313,96.8977,263.2181,-0.0001585,-2.808e-05,0.0,0 STARLINK-3774,1 52680U 22053AA  23311.45844745 -.00002808  00000-0 -15850-3 0  9996,2 52680  53.2196  14.4313 0001458  96.8977 263.2181 15.08814176 82340,6917.959,95.439,540.833,538.816,0.0
52680.0,STARLINK-3774,PAYLOAD,2023-11-08 04:29:23,15.08847025,0.0001759,53.219,11.164,105.9323,254.1863,0.00035994,5.446e-05,0.0,0 STARLINK-3774,1 52680U 22053AA  23312.18707680  .00005446  00000-0  35994-3 0  9993,2 52680  53.2190  11.1640 0001759 105.9323 254.1863 15.08847025 82044,6917.859,95.437,540.941,538.507,0.0
52680.0,STARLINK-3774,PAYLOAD,2023-11-08 09:15:32,15.08854305,0.0001721,53.2194,10.2746,90.2763,269.8427,0.00045862,7.021e-05,0.0,0 STARLINK-3774,1 52680U 22053AA  23312.38579432  .00007021  00000-0  45862-3 0  9993,2 52680  53.2194  10.2746 0001721  90.2763 269.8427 15.08854305 82484,6917.837,95.437,540.892,538.511,0.0
52680.0,STARLINK-3774,PAYLOAD,2023-11-09 09:06:19,15.08845668,0.0001476,53.2197,5.8173,103.6656,256.45,0.00036005,5.448e-05,0.0,0 STARLINK-3774,1 52680U 22053AA  23313.37939586  .00005448  00000-0  36005-3 0  9993,2 52680  53.2197   5.8173 0001476 103.6656 256.4500 15.08845668 82226,6917.863,95.437,540.749,538.707,0.0
52680.0,STARLINK-3774,PAYLOAD,2023-11-09 20:14:01,15.08843904,0.0001333,53.2192,3.7316,92.8253,267.2892,0.000256,3.789e-05,0.0,0 STARLINK-3774,1 52680U 22053AA  23313.84307424  .00003789  00000-0  25600-3 0  9990,2 52680  53.2192   3.7316 0001333  92.8253 267.2892 15.08843904 82709,6917.868,95.437,540.656,538.811,0.0
52680.0,STARLINK-3774,PAYLOAD,2023-11-10 10:32:29,15.08844866,0.0001557,53.2199,1.0571,101.6469,258.4698,-8.9563e-05,-1.713e-05,0.0,0 STARLINK-3774,1 52680U 22053AA  23314.43923596 -.00001713  00000-0 -89563-4 0  9996,2 52680  53.2199   1.0571 0001557 101.6469 258.4698 15.08844866 82384,6917.866,95.437,540.808,538.653,0.0
52680.0,STARLINK-3774,PAYLOAD,2023-11-10 20:04:48,15.08842352,0.0001626,53.2192,359.2706,111.3734,248.7431,-2.9956e-05,-7.65e-06,0.0,0 STARLINK-3774,1 52680U 22053AA  23314.83667398 -.00000765  00000-0 -29956-4 0  9991,2 52680  53.2192 359.2706 0001626 111.3734 248.7431 15.08842352 82852,6917.873,95.437,540.863,538.613,0.0
52680.0,STARLINK-3774,PAYLOAD,2023-11-11 10:23:16,15.08849157,0.0001606,53.219,356.5945,110.2878,249.8287,-3.9608e-05,-9.19e-06,0.0,0 STARLINK-3774,1 52680U 22053AA  23315.43282892 -.00000919  00000-0 -39608-4 0  9996,2 52680  53.2190 356.5945 0001606 110.2878 249.8287 15.08849157 82941,6917.852,95.437,540.828,538.606,0.0
52680.0,STARLINK-3774,PAYLOAD,2023-11-11 23:06:21,15.08837639,0.000155,53.2189,354.2155,94.5533,265.5636,0.00010125,1.324e-05,0.0,0 STARLINK-3774,1 52680U 22053AA  23315.96275096  .00001324  00000-0  10125-3 0  9993,2 52680  53.2189 354.2155 0001550  94.5533 265.5636 15.08837639 82616,6917.888,95.438,540.825,538.68,0.0
52680.0,STARLINK-3774,PAYLOAD,2023-11-12 11:49:26,15.08842271,0.0001491,53.2186,351.8331,93.9107,266.2055,8.5163e-05,1.068e-05,0.0,0 STARLINK-3774,1 52680U 22053AA  23316.49266979  .00001068  00000-0  85163-4 0  9992,2 52680  53.2186 351.8331 0001491  93.9107 266.2055 15.08842271 83102,6917.873,95.437,540.77,538.707,0.0
52680.0,STARLINK-3774,PAYLOAD,2023-11-13 08:29:27,15.08844795,0.0001457,53.2184,347.9672,95.5892,264.5267,0.00012076,1.635e-05,0.0,0 STARLINK-3774,1 52680U 22053AA  23317.35378548  .00001635  00000-0  12076-3 0  9996,2 52680  53.2184 347.9672 0001457  95.5892 264.5267 15.08844795 82822,6917.866,95.437,540.739,538.723,0.0
52680.0,STARLINK-3774,PAYLOAD,2023-11-13 19:37:09,15.08844761,0.0001485,53.2184,345.886,90.991,269.1253,6.2497e-05,7.07e-06,0.0,0 STARLINK-3774,1 52680U 22053AA  23317.81746766  .00000707  00000-0  62497-4 0  9990,2 52680  53.2184 345.8860 0001485  90.9910 269.1253 15.08844761 83302,6917.866,95.437,540.758,538.704,0.0
52680.0,STARLINK-3774,PAYLOAD,2023-11-14 01:58:41,15.08838912,0.0001646,53.2187,344.7008,83.019,277.099,6.0943e-05,6.82e-06,0.0,0 STARLINK-3774,1 52680U 22053AA  23318.08243006  .00000682  00000-0  60943-4 0  9995,2 52680  53.2187 344.7008 0001646  83.0190 277.0990 15.08838912 82934,6917.884,95.438,540.887,538.61,0.0
52680.0,STARLINK-3774,PAYLOAD,2023-11-14 08:20:14,15.08836048,0.0001615,53.2184,343.5096,82.6677,277.4499,3.0711e-05,2.01e-06,0.0,0 STARLINK-3774,1 52680U 22053AA  23318.34739277  .00000201  00000-0  30711-4 0  9991,2 52680  53.2184 343.5096 0001615  82.6677 277.4499 15.08836048 83382,6917.892,95.438,540.875,538.64,0.0
52680.0,STARLINK-3774,PAYLOAD,2023-11-15 01:49:29,15.08816196,0.0001831,53.2184,340.2387,85.2897,274.8304,0.00029738,4.445e-05,0.0,0 STARLINK-3774,1 52680U 22053AA  23319.07603156  .00004445  00000-0  29738-3 0  9998,2 52680  53.2184 340.2387 0001831  85.2897 274.8304 15.08816196 83087,6917.953,95.439,541.085,538.551,0.0
52680.0,STARLINK-3774,PAYLOAD,2023-11-15 06:35:29,15.08938672,0.0005522,53.2197,339.3447,299.639,60.4052,0.0006796,0.00010575,0.0,0 STARLINK-3774,1 52680U 22053AA  23319.27464499  .00010575  00000-0  67960-3 0  9995,2 52680  53.2197 339.3447 0005522 299.6390  60.4052 15.08938672 83114,6917.579,95.431,543.264,535.624,0.0
52680.0,STARLINK-3774,PAYLOAD,2023-11-15 14:32:40,15.08743889,0.0001611,53.2193,337.8587,135.4085,224.7037,-0.00093788,-0.00015144,0.0,0 STARLINK-3774,1 52680U 22053AA  23319.60602946 -.00015144  00000-0 -93788-3 0  9999,2 52680  53.2193 337.8587 0001611 135.4085 224.7037 15.08743889 83573,6918.174,95.444,541.154,538.925,0.0
52680.0,STARLINK-3774,PAYLOAD,2023-11-16 01:40:17,15.08814732,0.0001444,53.2178,335.7775,78.3251,281.7903,-0.00011741,-2.155e-05,0.0,0 STARLINK-3774,1 52680U 22053AA  23320.06964838 -.00002155  00000-0 -11741-3 0  9999,2 52680  53.2178 335.7775 0001444  78.3251 281.7903 15.08814732 83230,6917.958,95.439,540.822,538.824,0.0
52680.0,STARLINK-3774,PAYLOAD,2023-11-16 11:12:35,15.08837381,0.0001589,53.2181,333.9928,85.7535,274.3639,4.8721e-05,4.87e-06,0.0,0 STARLINK-3774,1 52680U 22053AA  23320.46707288  .00000487  00000-0  48721-4 0  9990,2 52680  53.2181 333.9928 0001589  85.7535 274.3639 15.08837381 83296,6917.888,95.438,540.853,538.654,0.0
